{
  "type": "FeatureCollection",
  "features": [
    {
      "type": "Feature",
      "properties": {
        "norad_id": 66521,
        "name": "STARLINK-35915",
        "group": "last-30-days",
        "lat": 38.34459559135168,
        "lon": -170.4994871955995,
        "alt_km": 409.96734392510916,
        "timestamp": "2025-12-10T09:57:43.488863+00:00",
        "meta_object_name": "STARLINK-35915",
        "meta_object_id": "2025-265F",
        "meta_epoch": "2025-12-10T04:00:01.998720",
        "meta_mean_motion": 15.50601228,
        "meta_eccentricity": 0.0001544,
        "meta_inclination": 42.9998,
        "meta_ra_of_asc_node": 69.0433,
        "meta_arg_of_pericenter": 272.2904,
        "meta_mean_anomaly": 253.939,
        "meta_ephemeris_type": 0,
        "meta_classification_type": "U",
        "meta_norad_cat_id": 66521,
        "meta_element_set_no": 999,
        "meta_rev_at_epoch": 458,
        "meta_bstar": -0.0013882,
        "meta_mean_motion_dot": -0.00081007,
        "meta_mean_motion_ddot": 0,
        "tle_line1": "1 66521U 25265F   25344.16668980 -.00081007  00000+0 -13882-2 0  9993",
        "tle_line2": "2 66521  42.9998  69.0433 0001544 272.2904 253.9390 15.50601228  4586"
      },
      "geometry": {
        "type": "Point",
        "coordinates": [
          -170.4994871955995,
          38.34459559135168
        ]
      }
    },
    {
      "type": "Feature",
      "properties": {
        "norad_id": 66522,
        "name": "STARLINK-35946",
        "group": "last-30-days",
        "lat": 37.633473464787556,
        "lon": -168.25007301519355,
        "alt_km": 410.28492313204333,
        "timestamp": "2025-12-10T09:57:43.488873+00:00",
        "meta_object_name": "STARLINK-35946",
        "meta_object_id": "2025-265G",
        "meta_epoch": "2025-12-10T04:00:01.998720",
        "meta_mean_motion": 15.50560172,
        "meta_eccentricity": 0.0001819,
        "meta_inclination": 42.9997,
        "meta_ra_of_asc_node": 69.0392,
        "meta_arg_of_pericenter": 275.4821,
        "meta_mean_anomaly": 252.6812,
        "meta_ephemeris_type": 0,
        "meta_classification_type": "U",
        "meta_norad_cat_id": 66522,
        "meta_element_set_no": 999,
        "meta_rev_at_epoch": 458,
        "meta_bstar": -0.00030621,
        "meta_mean_motion_dot": -0.00018252,
        "meta_mean_motion_ddot": 0,
        "tle_line1": "1 66522U 25265G   25344.16668980 -.00018252  00000+0 -30621-3 0  9997",
        "tle_line2": "2 66522  42.9997  69.0392 0001819 275.4821 252.6812 15.50560172  4585"
      },
      "geometry": {
        "type": "Point",
        "coordinates": [
          -168.25007301519355,
          37.633473464787556
        ]
      }
    },
    {
      "type": "Feature",
      "properties": {
        "norad_id": 66523,
        "name": "STARLINK-35969",
        "group": "last-30-days",
        "lat": 36.87861679533878,
        "lon": -166.03934663780962,
        "alt_km": 410.3442382917865,
        "timestamp": "2025-12-10T09:57:43.488884+00:00",
        "meta_object_name": "STARLINK-35969",
        "meta_object_id": "2025-265H",
        "meta_epoch": "2025-12-10T04:00:01.998720",
        "meta_mean_motion": 15.50562512,
        "meta_eccentricity": 0.0001802,
        "meta_inclination": 43,
        "meta_ra_of_asc_node": 69.0345,
        "meta_arg_of_pericenter": 271.3048,
        "meta_mean_anomaly": 258.775,
        "meta_ephemeris_type": 0,
        "meta_classification_type": "U",
        "meta_norad_cat_id": 66523,
        "meta_element_set_no": 999,
        "meta_rev_at_epoch": 458,
        "meta_bstar": -0.00038192,
        "meta_mean_motion_dot": -0.00022669,
        "meta_mean_motion_ddot": 0,
        "tle_line1": "1 66523U 25265H   25344.16668980 -.00022669  00000+0 -38192-3 0  9996",
        "tle_line2": "2 66523  43.0000  69.0345 0001802 271.3048 258.7750 15.50562512  4587"
      },
      "geometry": {
        "type": "Point",
        "coordinates": [
          -166.03934663780962,
          36.87861679533878
        ]
      }
    },
    {
      "type": "Feature",
      "properties": {
        "norad_id": 66524,
        "name": "STARLINK-35687",
        "group": "last-30-days",
        "lat": 36.085840917879366,
        "lon": -163.88132508588836,
        "alt_km": 410.37244890151305,
        "timestamp": "2025-12-10T09:57:43.488896+00:00",
        "meta_object_name": "STARLINK-35687",
        "meta_object_id": "2025-265J",
        "meta_epoch": "2025-12-10T04:00:01.998720",
        "meta_mean_motion": 15.50559532,
        "meta_eccentricity": 0.0001823,
        "meta_inclination": 42.9998,
        "meta_ra_of_asc_node": 69.0292,
        "meta_arg_of_pericenter": 269.6742,
        "meta_mean_anomaly": 262.3065,
        "meta_ephemeris_type": 0,
        "meta_classification_type": "U",
        "meta_norad_cat_id": 66524,
        "meta_element_set_no": 999,
        "meta_rev_at_epoch": 458,
        "meta_bstar": 0.00054558,
        "meta_mean_motion_dot": 0.00031773,
        "meta_mean_motion_ddot": 0,
        "tle_line1": "1 66524U 25265J   25344.16668980  .00031773  00000+0  54558-3 0  9995",
        "tle_line2": "2 66524  42.9998  69.0292 0001823 269.6742 262.3065 15.50559532  4585"
      },
      "geometry": {
        "type": "Point",
        "coordinates": [
          -163.88132508588836,
          36.085840917879366
        ]
      }
    },
    {
      "type": "Feature",
      "properties": {
        "norad_id": 66525,
        "name": "STARLINK-35975",
        "group": "last-30-days",
        "lat": 35.25104775910381,
        "lon": -161.75630349865386,
        "alt_km": 410.4964921634537,
        "timestamp": "2025-12-10T09:57:43.488906+00:00",
        "meta_object_name": "STARLINK-35975",
        "meta_object_id": "2025-265K",
        "meta_epoch": "2025-12-10T04:00:01.998720",
        "meta_mean_motion": 15.50535681,
        "meta_eccentricity": 0.000171,
        "meta_inclination": 42.9997,
        "meta_ra_of_asc_node": 69.0251,
        "meta_arg_of_pericenter": 273.9305,
        "meta_mean_anomaly": 259.9836,
        "meta_ephemeris_type": 0,
        "meta_classification_type": "U",
        "meta_norad_cat_id": 66525,
        "meta_element_set_no": 999,
        "meta_rev_at_epoch": 458,
        "meta_bstar": 0.00091425,
        "meta_mean_motion_dot": 0.00053578,
        "meta_mean_motion_ddot": 0,
        "tle_line1": "1 66525U 25265K   25344.16668980  .00053578  00000+0  91425-3 0  9997",
        "tle_line2": "2 66525  42.9997  69.0251 0001710 273.9305 259.9836 15.50535681  4585"
      },
      "geometry": {
        "type": "Point",
        "coordinates": [
          -161.75630349865386,
          35.25104775910381
        ]
      }
    },
    {
      "type": "Feature",
      "properties": {
        "norad_id": 66526,
        "name": "STARLINK-35932",
        "group": "last-30-days",
        "lat": 34.37522738697926,
        "lon": -159.66685690775998,
        "alt_km": 410.6329377509783,
        "timestamp": "2025-12-10T09:57:43.488917+00:00",
        "meta_object_name": "STARLINK-35932",
        "meta_object_id": "2025-265L",
        "meta_epoch": "2025-12-10T04:00:01.998720",
        "meta_mean_motion": 15.50603726,
        "meta_eccentricity": 0.0001673,
        "meta_inclination": 42.9996,
        "meta_ra_of_asc_node": 69.0194,
        "meta_arg_of_pericenter": 276.5331,
        "meta_mean_anomaly": 259.2778,
        "meta_ephemeris_type": 0,
        "meta_classification_type": "U",
        "meta_norad_cat_id": 66526,
        "meta_element_set_no": 999,
        "meta_rev_at_epoch": 447,
        "meta_bstar": -0.0014046,
        "meta_mean_motion_dot": -0.00081959,
        "meta_mean_motion_ddot": 0,
        "tle_line1": "1 66526U 25265L   25344.16668980 -.00081959  00000+0 -14046-2 0  9997",
        "tle_line2": "2 66526  42.9996  69.0194 0001673 276.5331 259.2778 15.50603726  4479"
      },
      "geometry": {
        "type": "Point",
        "coordinates": [
          -159.66685690775998,
          34.37522738697926
        ]
      }
    },
    {
      "type": "Feature",
      "properties": {
        "norad_id": 66527,
        "name": "STARLINK-35935",
        "group": "last-30-days",
        "lat": 33.47233021340836,
        "lon": -157.63736324124858,
        "alt_km": 410.5755365082232,
        "timestamp": "2025-12-10T09:57:43.488927+00:00",
        "meta_object_name": "STARLINK-35935",
        "meta_object_id": "2025-265M",
        "meta_epoch": "2025-12-10T04:00:01.998720",
        "meta_mean_motion": 15.50594072,
        "meta_eccentricity": 0.0001485,
        "meta_inclination": 42.9996,
        "meta_ra_of_asc_node": 69.0149,
        "meta_arg_of_pericenter": 268.195,
        "meta_mean_anomaly": 269.5348,
        "meta_ephemeris_type": 0,
        "meta_classification_type": "U",
        "meta_norad_cat_id": 66527,
        "meta_element_set_no": 999,
        "meta_rev_at_epoch": 458,
        "meta_bstar": -0.0011607,
        "meta_mean_motion_dot": -0.00067881,
        "meta_mean_motion_ddot": 0,
        "tle_line1": "1 66527U 25265M   25344.16668980 -.00067881  00000+0 -11607-2 0  9996",
        "tle_line2": "2 66527  42.9996  69.0149 0001485 268.1950 269.5348 15.50594072  4587"
      },
      "geometry": {
        "type": "Point",
        "coordinates": [
          -157.63736324124858,
          33.47233021340836
        ]
      }
    }
  ]
}